YAM-7                   
1 60504U 24149AN  26068.71799904  .00009009  00000+0  30984-3 0  9997
2 60504  97.3828 149.4631 0001973 296.5121  63.5918 15.30304554 86835
STARLINK-35633          
1 66162U 25240S   26068.25716431  .00013266  00000+0  45942-3 0  9999
2 66162  53.1605  64.7039 0001484 115.4098 244.7056 15.30186772 21929
